[{"OBJECT_NAME":"GEESAT-5 09","OBJECT_ID":"2025-201J","EPOCH":"2026-03-09T16:41:20.363712","MEAN_MOTION":14.83755327,"ECCENTRICITY":0.00091112,"INCLINATION":49.9793,"RA_OF_ASC_NODE":140.3442,"ARG_OF_PERICENTER":245.3238,"MEAN_ANOMALY":114.6752,"EPHEMERIS_TYPE":0,"CLASSIFICATION_TYPE":"U","NORAD_CAT_ID":65558,"ELEMENT_SET_NO":999,"REV_AT_EPOCH":2702,"BSTAR":0.00034324201,"MEAN_MOTION_DOT":2.646e-5,"MEAN_MOTION_DDOT":0},{"OBJECT_NAME":"RESURS O1","OBJECT_ID":"1994-074A","EPOCH":"2026-03-09T14:58:22.947744","MEAN_MOTION":14.84942467,"ECCENTRICITY":0.0002035,"INCLINATION":97.6716,"RA_OF_ASC_NODE":90.8465,"ARG_OF_PERICENTER":78.6893,"MEAN_ANOMALY":281.4551,"EPHEMERIS_TYPE":0,"CLASSIFICATION_TYPE":"U","NORAD_CAT_ID":23342,"ELEMENT_SET_NO":999,"REV_AT_EPOCH":68915,"BSTAR":0.00012801,"MEAN_MOTION_DOT":1.039e-5,"MEAN_MOTION_DDOT":0}]
